{
"type": "FeatureCollection",
"name": "krakow_regional_plants",
"features": [
{ "type": "Feature", "properties": { "name": "Albrechtičky Solar Power Plant", "primary_fuel": "Solar", "capacity_mw": 1.0 }, "geometry": { "type": "Point", "coordinates": [ 18.1182, 49.7088 ] } },
{ "type": "Feature", "properties": { "name": "Bařice Solar Power Plant", "primary_fuel": "Solar", "capacity_mw": 1.0 }, "geometry": { "type": "Point", "coordinates": [ 17.4311, 49.2488 ] } },
{ "type": "Feature", "properties": { "name": "Blížkovice - AG-Sun Solar Power Plant", "primary_fuel": "Solar", "capacity_mw": 3.3 }, "geometry": { "type": "Point", "coordinates": [ 15.8293, 48.9941 ] } },
{ "type": "Feature", "properties": { "name": "Blížkovice - DH Energy Solar Power Plant", "primary_fuel": "Solar", "capacity_mw": 1.0 }, "geometry": { "type": "Point", "coordinates": [ 15.8273, 48.9951 ] } },
{ "type": "Feature", "properties": { "name": "Bohuňovice Solar Power Plant", "primary_fuel": "Solar", "capacity_mw": 3.0 }, "geometry": { "type": "Point", "coordinates": [ 16.2569, 49.9044 ] } },
{ "type": "Feature", "properties": { "name": "Bojanovice Solar Power Plant", "primary_fuel": "Solar", "capacity_mw": 1.0 }, "geometry": { "type": "Point", "coordinates": [ 15.9981, 48.962 ] } },
{ "type": "Feature", "properties": { "name": "Bojkovice 2 Solar Power Plant", "primary_fuel": "Solar", "capacity_mw": 4.1 }, "geometry": { "type": "Point", "coordinates": [ 17.7929, 49.0365 ] } },
{ "type": "Feature", "properties": { "name": "Boskovice Solar Power Plant", "primary_fuel": "Solar", "capacity_mw": 1.5 }, "geometry": { "type": "Point", "coordinates": [ 16.6384, 49.4981 ] } },
{ "type": "Feature", "properties": { "name": "Bošovice Solar Power Plant", "primary_fuel": "Solar", "capacity_mw": 1.2 }, "geometry": { "type": "Point", "coordinates": [ 16.8438, 49.0498 ] } },
{ "type": "Feature", "properties": { "name": "Božice Solar Power Plant", "primary_fuel": "Solar", "capacity_mw": 3.3 }, "geometry": { "type": "Point", "coordinates": [ 16.2927, 48.8452 ] } },
{ "type": "Feature", "properties": { "name": "Bražec Solar Power Plant", "primary_fuel": "Solar", "capacity_mw": 1.0 }, "geometry": { "type": "Point", "coordinates": [ 16.1614, 50.3968 ] } },
{ "type": "Feature", "properties": { "name": "Brno power station", "primary_fuel": "Coal", "capacity_mw": 72.0 }, "geometry": { "type": "Point", "coordinates": [ 16.6064, 49.2159 ] } },
{ "type": "Feature", "properties": { "name": "Brno-Tuřany Solar Power Plant", "primary_fuel": "Solar", "capacity_mw": 21.2 }, "geometry": { "type": "Point", "coordinates": [ 16.6909, 49.1472 ] } },
{ "type": "Feature", "properties": { "name": "Brněnec Solar Power Plant", "primary_fuel": "Solar", "capacity_mw": 1.3 }, "geometry": { "type": "Point", "coordinates": [ 16.5464, 49.6202 ] } },
{ "type": "Feature", "properties": { "name": "Bruzovice Solar Power Plant", "primary_fuel": "Solar", "capacity_mw": 1.9 }, "geometry": { "type": "Point", "coordinates": [ 18.3852, 49.71 ] } },
{ "type": "Feature", "properties": { "name": "Buchlovice Solar Power Plant", "primary_fuel": "Solar", "capacity_mw": 1.0 }, "geometry": { "type": "Point", "coordinates": [ 17.3579, 49.078 ] } },
{ "type": "Feature", "properties": { "name": "Bystročice Solar Power Plant", "primary_fuel": "Solar", "capacity_mw": 2.3 }, "geometry": { "type": "Point", "coordinates": [ 17.1807, 49.5435 ] } },
{ "type": "Feature", "properties": { "name": "Bystřice nad Perštejnem Solar Power Plant", "primary_fuel": "Solar", "capacity_mw": 2.4 }, "geometry": { "type": "Point", "coordinates": [ 16.2377, 49.5143 ] } },
{ "type": "Feature", "properties": { "name": "Bystřice pod Hostýnem Solar Power Plant", "primary_fuel": "Solar", "capacity_mw": 1.3 }, "geometry": { "type": "Point", "coordinates": [ 17.6636, 49.3953 ] } },
{ "type": "Feature", "properties": { "name": "Bílany Solar Power Plant", "primary_fuel": "Solar", "capacity_mw": 4.5 }, "geometry": { "type": "Point", "coordinates": [ 17.4179, 49.3038 ] } },
{ "type": "Feature", "properties": { "name": "Břest", "primary_fuel": "Solar", "capacity_mw": 5.1 }, "geometry": { "type": "Point", "coordinates": [ 17.426, 49.354 ] } },
{ "type": "Feature", "properties": { "name": "Břest Solar Power Plant", "primary_fuel": "Solar", "capacity_mw": 1.6 }, "geometry": { "type": "Point", "coordinates": [ 17.4258, 49.3538 ] } },
{ "type": "Feature", "properties": { "name": "Březová Solar Power Plant", "primary_fuel": "Solar", "capacity_mw": 5.0 }, "geometry": { "type": "Point", "coordinates": [ 17.7905, 49.2563 ] } },
{ "type": "Feature", "properties": { "name": "Chlebičov Solar Power Plant", "primary_fuel": "Solar", "capacity_mw": 1.0 }, "geometry": { "type": "Point", "coordinates": [ 17.976, 49.9565 ] } },
{ "type": "Feature", "properties": { "name": "Chornice Solar Power Plant", "primary_fuel": "Solar", "capacity_mw": 1.2 }, "geometry": { "type": "Point", "coordinates": [ 16.7539, 49.6574 ] } },
{ "type": "Feature", "properties": { "name": "Choustníkovo Hradiště 1 Solar Power Plant", "primary_fuel": "Solar", "capacity_mw": 3.0 }, "geometry": { "type": "Point", "coordinates": [ 15.8841, 50.424 ] } },
{ "type": "Feature", "properties": { "name": "Choustníkovo Hradiště 2 Solar Power Plant", "primary_fuel": "Solar", "capacity_mw": 3.0 }, "geometry": { "type": "Point", "coordinates": [ 15.8907, 50.4211 ] } },
{ "type": "Feature", "properties": { "name": "Chropyně Solar Power Plant", "primary_fuel": "Solar", "capacity_mw": 1.1 }, "geometry": { "type": "Point", "coordinates": [ 17.3795, 49.3571 ] } },
{ "type": "Feature", "properties": { "name": "Chrudichromy Solar Power Plant", "primary_fuel": "Solar", "capacity_mw": 10.0 }, "geometry": { "type": "Point", "coordinates": [ 16.6362, 49.5078 ] } },
{ "type": "Feature", "properties": { "name": "Chrudim Solar Power Plant", "primary_fuel": "Solar", "capacity_mw": 1.0 }, "geometry": { "type": "Point", "coordinates": [ 15.8044, 49.962 ] } },
{ "type": "Feature", "properties": { "name": "Chvalatice Solar Power Plant", "primary_fuel": "Solar", "capacity_mw": 3.5 }, "geometry": { "type": "Point", "coordinates": [ 15.7519, 48.9495 ] } },
{ "type": "Feature", "properties": { "name": "Chvaletice power station", "primary_fuel": "Coal", "capacity_mw": 820.0 }, "geometry": { "type": "Point", "coordinates": [ 15.4505, 50.0275 ] } },
{ "type": "Feature", "properties": { "name": "Chvalčov Solar Power Plant", "primary_fuel": "Solar", "capacity_mw": 1.8 }, "geometry": { "type": "Point", "coordinates": [ 17.7058, 49.3981 ] } },
{ "type": "Feature", "properties": { "name": "Dalešice", "primary_fuel": "Hydro", "capacity_mw": 480.0 }, "geometry": { "type": "Point", "coordinates": [ 16.1242, 49.1245 ] } },
{ "type": "Feature", "properties": { "name": "Detmarovice power station", "primary_fuel": "Coal", "capacity_mw": 800.0 }, "geometry": { "type": "Point", "coordinates": [ 18.4646, 49.9072 ] } },
{ "type": "Feature", "properties": { "name": "Dlouhé Stráně I", "primary_fuel": "Hydro", "capacity_mw": 650.0 }, "geometry": { "type": "Point", "coordinates": [ 17.1794, 50.0854 ] } },
{ "type": "Feature", "properties": { "name": "Dobruška Solar Power Plant", "primary_fuel": "Solar", "capacity_mw": 1.8 }, "geometry": { "type": "Point", "coordinates": [ 16.1252, 50.2845 ] } },
{ "type": "Feature", "properties": { "name": "Dobré Pole Solar Power Plant", "primary_fuel": "Solar", "capacity_mw": 1.7 }, "geometry": { "type": "Point", "coordinates": [ 16.5353, 48.8346 ] } },
{ "type": "Feature", "properties": { "name": "Dobšice Solar Power Plant", "primary_fuel": "Solar", "capacity_mw": 1.9 }, "geometry": { "type": "Point", "coordinates": [ 16.1055, 48.8549 ] } },
{ "type": "Feature", "properties": { "name": "Domaželice Solar Power Plant", "primary_fuel": "Solar", "capacity_mw": 1.0 }, "geometry": { "type": "Point", "coordinates": [ 17.5515, 49.428 ] } },
{ "type": "Feature", "properties": { "name": "Drnholec Solar Power Plant", "primary_fuel": "Solar", "capacity_mw": 2.3 }, "geometry": { "type": "Point", "coordinates": [ 16.4668, 48.8657 ] } },
{ "type": "Feature", "properties": { "name": "Drásov - Jihomoravský Solar Power Plant", "primary_fuel": "Solar", "capacity_mw": 1.3 }, "geometry": { "type": "Point", "coordinates": [ 16.4898, 49.3244 ] } },
{ "type": "Feature", "properties": { "name": "Držovice Solar Power Plant", "primary_fuel": "Solar", "capacity_mw": 1.6 }, "geometry": { "type": "Point", "coordinates": [ 17.1345, 49.4826 ] } },
{ "type": "Feature", "properties": { "name": "Dukonavy", "primary_fuel": "Nuclear", "capacity_mw": 2040.0 }, "geometry": { "type": "Point", "coordinates": [ 16.1479, 49.0852 ] } },
{ "type": "Feature", "properties": { "name": "Dřínov Solar Power Plant", "primary_fuel": "Solar", "capacity_mw": 2.5 }, "geometry": { "type": "Point", "coordinates": [ 17.2316, 49.2887 ] } },
{ "type": "Feature", "properties": { "name": "Frýdek-Místek - Beskydská Solar Power Plant", "primary_fuel": "Solar", "capacity_mw": 2.3 }, "geometry": { "type": "Point", "coordinates": [ 18.3909, 49.6803 ] } },
{ "type": "Feature", "properties": { "name": "Frýdek-Místek - ClearEnergy Solar Power Plant", "primary_fuel": "Solar", "capacity_mw": 1.0 }, "geometry": { "type": "Point", "coordinates": [ 18.3825, 49.683 ] } },
{ "type": "Feature", "properties": { "name": "Havřice Solar Power Plant", "primary_fuel": "Solar", "capacity_mw": 2.0 }, "geometry": { "type": "Point", "coordinates": [ 17.6151, 49.026 ] } },
{ "type": "Feature", "properties": { "name": "Hodonice Solar Power Plant", "primary_fuel": "Solar", "capacity_mw": 1.0 }, "geometry": { "type": "Point", "coordinates": [ 16.1745, 48.8395 ] } },
{ "type": "Feature", "properties": { "name": "Hodonin power station", "primary_fuel": "Coal", "capacity_mw": 105.0 }, "geometry": { "type": "Point", "coordinates": [ 17.1197, 48.8474 ] } },
{ "type": "Feature", "properties": { "name": "Hodonín Solar Power Plant", "primary_fuel": "Solar", "capacity_mw": 2.1 }, "geometry": { "type": "Point", "coordinates": [ 17.1418, 48.8679 ] } },
{ "type": "Feature", "properties": { "name": "Honětice Solar Power Plant", "primary_fuel": "Solar", "capacity_mw": 3.3 }, "geometry": { "type": "Point", "coordinates": [ 17.2475, 49.2083 ] } },
{ "type": "Feature", "properties": { "name": "Horní Moštěnice Solar Power Plant", "primary_fuel": "Solar", "capacity_mw": 1.0 }, "geometry": { "type": "Point", "coordinates": [ 17.4609, 49.4039 ] } },
{ "type": "Feature", "properties": { "name": "Hostovice Solar Power Plant", "primary_fuel": "Solar", "capacity_mw": 4.8 }, "geometry": { "type": "Point", "coordinates": [ 15.8853, 50.0107 ] } },
{ "type": "Feature", "properties": { "name": "Hrabětice Solar Power Plant", "primary_fuel": "Solar", "capacity_mw": 1.8 }, "geometry": { "type": "Point", "coordinates": [ 16.4237, 48.7952 ] } },
{ "type": "Feature", "properties": { "name": "Hradec Králové - Třebeš Solar Power Plant", "primary_fuel": "Solar", "capacity_mw": 2.2 }, "geometry": { "type": "Point", "coordinates": [ 15.8212, 50.1794 ] } },
{ "type": "Feature", "properties": { "name": "Hradčany Solar Power Plant", "primary_fuel": "Solar", "capacity_mw": 3.7 }, "geometry": { "type": "Point", "coordinates": [ 16.4629, 49.3256 ] } },
{ "type": "Feature", "properties": { "name": "Hrušovany", "primary_fuel": "Solar", "capacity_mw": 8.0 }, "geometry": { "type": "Point", "coordinates": [ 16.568, 49.05 ] } },
{ "type": "Feature", "properties": { "name": "Hrušovany - Solar3 Solar Power Plant", "primary_fuel": "Solar", "capacity_mw": 2.0 }, "geometry": { "type": "Point", "coordinates": [ 16.4222, 48.8108 ] } },
{ "type": "Feature", "properties": { "name": "Hrušovany - ČEZ Solar Power Plant", "primary_fuel": "Solar", "capacity_mw": 3.7 }, "geometry": { "type": "Point", "coordinates": [ 16.3985, 48.8115 ] } },
{ "type": "Feature", "properties": { "name": "Hrádek Solar Power Plant", "primary_fuel": "Solar", "capacity_mw": 1.1 }, "geometry": { "type": "Point", "coordinates": [ 16.2476, 48.7889 ] } },
{ "type": "Feature", "properties": { "name": "Hulín Solar Power Plant", "primary_fuel": "Solar", "capacity_mw": 1.7 }, "geometry": { "type": "Point", "coordinates": [ 17.4521, 49.3127 ] } },
{ "type": "Feature", "properties": { "name": "Hustopeče Solar Power Plant", "primary_fuel": "Solar", "capacity_mw": 1.1 }, "geometry": { "type": "Point", "coordinates": [ 16.7531, 48.9514 ] } },
{ "type": "Feature", "properties": { "name": "Hustopeče nad Bečvou Solar Power Plant", "primary_fuel": "Solar", "capacity_mw": 1.3 }, "geometry": { "type": "Point", "coordinates": [ 17.8835, 49.5259 ] } },
{ "type": "Feature", "properties": { "name": "Jaroměřice nad Rokytnou Solar Power Plant", "primary_fuel": "Solar", "capacity_mw": 2.6 }, "geometry": { "type": "Point", "coordinates": [ 15.8724, 49.0926 ] } },
{ "type": "Feature", "properties": { "name": "Jesenec Solar Power Plant", "primary_fuel": "Solar", "capacity_mw": 1.4 }, "geometry": { "type": "Point", "coordinates": [ 16.8675, 49.6043 ] } },
{ "type": "Feature", "properties": { "name": "Jevišovka Solar Power Plant", "primary_fuel": "Solar", "capacity_mw": 2.4 }, "geometry": { "type": "Point", "coordinates": [ 16.4573, 48.8338 ] } },
{ "type": "Feature", "properties": { "name": "Kameničná Solar Power Plant", "primary_fuel": "Solar", "capacity_mw": 5.1 }, "geometry": { "type": "Point", "coordinates": [ 16.426, 50.1124 ] } },
{ "type": "Feature", "properties": { "name": "Klenovka Solar Power Plant", "primary_fuel": "Solar", "capacity_mw": 8.4 }, "geometry": { "type": "Point", "coordinates": [ 15.5919, 50.0209 ] } },
{ "type": "Feature", "properties": { "name": "Kojetín Solar Power Plant", "primary_fuel": "Solar", "capacity_mw": 4.0 }, "geometry": { "type": "Point", "coordinates": [ 17.3082, 49.3435 ] } },
{ "type": "Feature", "properties": { "name": "Komárov - Al Trax Solar Power Plant", "primary_fuel": "Solar", "capacity_mw": 1.0 }, "geometry": { "type": "Point", "coordinates": [ 17.9485, 49.9174 ] } },
{ "type": "Feature", "properties": { "name": "Komárov - Suntrax Solar Power Plant", "primary_fuel": "Solar", "capacity_mw": 1.0 }, "geometry": { "type": "Point", "coordinates": [ 17.9515, 49.9173 ] } },
{ "type": "Feature", "properties": { "name": "Kosořín - Stand-by Europe Solar Power Plant", "primary_fuel": "Solar", "capacity_mw": 1.9 }, "geometry": { "type": "Point", "coordinates": [ 16.2294, 49.981 ] } },
{ "type": "Feature", "properties": { "name": "Kosořín 1 Solar Power Plant", "primary_fuel": "Solar", "capacity_mw": 2.0 }, "geometry": { "type": "Point", "coordinates": [ 16.2381, 49.9797 ] } },
{ "type": "Feature", "properties": { "name": "Kosořín 2 Solar Power Plant", "primary_fuel": "Solar", "capacity_mw": 1.9 }, "geometry": { "type": "Point", "coordinates": [ 16.2406, 49.9813 ] } },
{ "type": "Feature", "properties": { "name": "Kozojídky Solar Power Plant", "primary_fuel": "Solar", "capacity_mw": 1.2 }, "geometry": { "type": "Point", "coordinates": [ 17.3894, 48.9188 ] } },
{ "type": "Feature", "properties": { "name": "Kralice na Hané Solar Power Plant", "primary_fuel": "Solar", "capacity_mw": 3.0 }, "geometry": { "type": "Point", "coordinates": [ 17.21, 49.4552 ] } },
{ "type": "Feature", "properties": { "name": "Krmelín Solar Power Plant", "primary_fuel": "Solar", "capacity_mw": 2.0 }, "geometry": { "type": "Point", "coordinates": [ 18.2319, 49.7366 ] } },
{ "type": "Feature", "properties": { "name": "Krčín Solar Power Plant", "primary_fuel": "Solar", "capacity_mw": 1.8 }, "geometry": { "type": "Point", "coordinates": [ 16.1312, 50.3555 ] } },
{ "type": "Feature", "properties": { "name": "Kunkovice Solar Power Plant", "primary_fuel": "Solar", "capacity_mw": 1.5 }, "geometry": { "type": "Point", "coordinates": [ 17.163, 49.1779 ] } },
{ "type": "Feature", "properties": { "name": "Kunovice Solar Power Plant", "primary_fuel": "Solar", "capacity_mw": 2.0 }, "geometry": { "type": "Point", "coordinates": [ 17.4788, 49.0353 ] } },
{ "type": "Feature", "properties": { "name": "Kunštát Solar Power Plant", "primary_fuel": "Solar", "capacity_mw": 1.7 }, "geometry": { "type": "Point", "coordinates": [ 16.5201, 49.4935 ] } },
{ "type": "Feature", "properties": { "name": "Kuřim Solar Power Plant", "primary_fuel": "Solar", "capacity_mw": 1.0 }, "geometry": { "type": "Point", "coordinates": [ 16.5156, 49.2992 ] } },
{ "type": "Feature", "properties": { "name": "Kyjov - Top Centrum Solar Power Plant", "primary_fuel": "Solar", "capacity_mw": 3.9 }, "geometry": { "type": "Point", "coordinates": [ 17.1066, 49.0045 ] } },
{ "type": "Feature", "properties": { "name": "Křenovice Solar Power Plant", "primary_fuel": "Solar", "capacity_mw": 1.5 }, "geometry": { "type": "Point", "coordinates": [ 16.8359, 49.1495 ] } },
{ "type": "Feature", "properties": { "name": "Křepice Solar Power Plant", "primary_fuel": "Solar", "capacity_mw": 1.1 }, "geometry": { "type": "Point", "coordinates": [ 16.1028, 48.99 ] } },
{ "type": "Feature", "properties": { "name": "Křižanov Solar Power Plant", "primary_fuel": "Solar", "capacity_mw": 1.0 }, "geometry": { "type": "Point", "coordinates": [ 16.1174, 49.399 ] } },
{ "type": "Feature", "properties": { "name": "Ladná Solar Power Plant", "primary_fuel": "Solar", "capacity_mw": 4.0 }, "geometry": { "type": "Point", "coordinates": [ 16.886, 48.8042 ] } },
{ "type": "Feature", "properties": { "name": "Lanžhot Solar Power Plant", "primary_fuel": "Solar", "capacity_mw": 2.0 }, "geometry": { "type": "Point", "coordinates": [ 16.9424, 48.7281 ] } },
{ "type": "Feature", "properties": { "name": "Lhotka Solar Power Plant", "primary_fuel": "Solar", "capacity_mw": 1.0 }, "geometry": { "type": "Point", "coordinates": [ 17.4138, 49.5005 ] } },
{ "type": "Feature", "properties": { "name": "Lipovka Solar Power Plant", "primary_fuel": "Solar", "capacity_mw": 1.1 }, "geometry": { "type": "Point", "coordinates": [ 16.2629, 50.1834 ] } },
{ "type": "Feature", "properties": { "name": "Litostrov Solar Power Plant", "primary_fuel": "Solar", "capacity_mw": 1.9 }, "geometry": { "type": "Point", "coordinates": [ 16.3397, 49.2225 ] } },
{ "type": "Feature", "properties": { "name": "Lukavice Solar Power Plant", "primary_fuel": "Solar", "capacity_mw": 1.6 }, "geometry": { "type": "Point", "coordinates": [ 16.4938, 50.0589 ] } },
{ "type": "Feature", "properties": { "name": "Lužany Solar Power Plant", "primary_fuel": "Solar", "capacity_mw": 1.0 }, "geometry": { "type": "Point", "coordinates": [ 15.7903, 50.3345 ] } },
{ "type": "Feature", "properties": { "name": "Lužice - Nobility Solar Projects Solar Power Plant", "primary_fuel": "Solar", "capacity_mw": 1.0 }, "geometry": { "type": "Point", "coordinates": [ 17.0947, 48.8476 ] } },
{ "type": "Feature", "properties": { "name": "Malešovice Solar Power Plant", "primary_fuel": "Solar", "capacity_mw": 3.6 }, "geometry": { "type": "Point", "coordinates": [ 16.4888, 49.0313 ] } },
{ "type": "Feature", "properties": { "name": "Medlov Solar Power Plant", "primary_fuel": "Solar", "capacity_mw": 2.3 }, "geometry": { "type": "Point", "coordinates": [ 16.5371, 49.0156 ] } },
{ "type": "Feature", "properties": { "name": "Micmanice Solar Power Plant", "primary_fuel": "Solar", "capacity_mw": 1.1 }, "geometry": { "type": "Point", "coordinates": [ 16.1879, 48.7906 ] } },
{ "type": "Feature", "properties": { "name": "Milovice Solar Power Plant", "primary_fuel": "Solar", "capacity_mw": 1.6 }, "geometry": { "type": "Point", "coordinates": [ 16.7006, 48.8565 ] } },
{ "type": "Feature", "properties": { "name": "Mohelno Solar Power Plant", "primary_fuel": "Solar", "capacity_mw": 1.5 }, "geometry": { "type": "Point", "coordinates": [ 16.201, 49.1215 ] } },
{ "type": "Feature", "properties": { "name": "Moravský Písek Solar Power Plant", "primary_fuel": "Solar", "capacity_mw": 1.9 }, "geometry": { "type": "Point", "coordinates": [ 17.3219, 48.9877 ] } },
{ "type": "Feature", "properties": { "name": "Moravský Žižkov Solar Power Plant", "primary_fuel": "Solar", "capacity_mw": 1.2 }, "geometry": { "type": "Point", "coordinates": [ 16.924, 48.8208 ] } },
{ "type": "Feature", "properties": { "name": "Morašice Solar Power Plant", "primary_fuel": "Solar", "capacity_mw": 1.0 }, "geometry": { "type": "Point", "coordinates": [ 15.7121, 49.9321 ] } },
{ "type": "Feature", "properties": { "name": "Moutnice Solar Power Plant", "primary_fuel": "Solar", "capacity_mw": 2.1 }, "geometry": { "type": "Point", "coordinates": [ 16.7352, 49.0645 ] } },
{ "type": "Feature", "properties": { "name": "Mrlínek Solar Power Plant", "primary_fuel": "Solar", "capacity_mw": 2.0 }, "geometry": { "type": "Point", "coordinates": [ 17.6749, 49.4259 ] } },
{ "type": "Feature", "properties": { "name": "Myštěves Solar Power Plant", "primary_fuel": "Solar", "capacity_mw": 2.8 }, "geometry": { "type": "Point", "coordinates": [ 15.5613, 50.3012 ] } },
{ "type": "Feature", "properties": { "name": "Měnín Solar Power Plant", "primary_fuel": "Solar", "capacity_mw": 3.2 }, "geometry": { "type": "Point", "coordinates": [ 16.6856, 49.0743 ] } },
{ "type": "Feature", "properties": { "name": "Napajedla Solar Power Plant", "primary_fuel": "Solar", "capacity_mw": 4.9 }, "geometry": { "type": "Point", "coordinates": [ 17.5217, 49.1893 ] } },
{ "type": "Feature", "properties": { "name": "Nasavrky Solar Power Plant", "primary_fuel": "Solar", "capacity_mw": 3.0 }, "geometry": { "type": "Point", "coordinates": [ 15.826, 49.8531 ] } },
{ "type": "Feature", "properties": { "name": "Nedakonice Solar Power Plant", "primary_fuel": "Solar", "capacity_mw": 2.0 }, "geometry": { "type": "Point", "coordinates": [ 17.3837, 49.0355 ] } },
{ "type": "Feature", "properties": { "name": "Neznášov Solar Power Plant", "primary_fuel": "Solar", "capacity_mw": 1.2 }, "geometry": { "type": "Point", "coordinates": [ 15.8404, 50.3361 ] } },
{ "type": "Feature", "properties": { "name": "Nivnice Solar Power Plant", "primary_fuel": "Solar", "capacity_mw": 1.0 }, "geometry": { "type": "Point", "coordinates": [ 17.6481, 48.9953 ] } },
{ "type": "Feature", "properties": { "name": "Náměšť nad Oslavou Solar Power Plant", "primary_fuel": "Solar", "capacity_mw": 3.0 }, "geometry": { "type": "Point", "coordinates": [ 16.167, 49.2154 ] } },
{ "type": "Feature", "properties": { "name": "Němčice nad Hanou Solar Power Plant", "primary_fuel": "Solar", "capacity_mw": 3.6 }, "geometry": { "type": "Point", "coordinates": [ 17.2151, 49.3381 ] } },
{ "type": "Feature", "properties": { "name": "Ochoz Solar Power Plant", "primary_fuel": "Solar", "capacity_mw": 3.5 }, "geometry": { "type": "Point", "coordinates": [ 16.9064, 49.5975 ] } },
{ "type": "Feature", "properties": { "name": "Omice Solar Power Plant", "primary_fuel": "Solar", "capacity_mw": 1.0 }, "geometry": { "type": "Point", "coordinates": [ 16.4512, 49.1592 ] } },
{ "type": "Feature", "properties": { "name": "Opatovice power station", "primary_fuel": "Coal", "capacity_mw": 360.0 }, "geometry": { "type": "Point", "coordinates": [ 15.7933, 50.1265 ] } },
{ "type": "Feature", "properties": { "name": "Opava Solar Power Plant", "primary_fuel": "Solar", "capacity_mw": 1.0 }, "geometry": { "type": "Point", "coordinates": [ 17.9158, 49.9521 ] } },
{ "type": "Feature", "properties": { "name": "Oslavany Solar Power Plant", "primary_fuel": "Solar", "capacity_mw": 8.0 }, "geometry": { "type": "Point", "coordinates": [ 16.3503, 49.1201 ] } },
{ "type": "Feature", "properties": { "name": "Otice Solar Power Plant", "primary_fuel": "Solar", "capacity_mw": 2.5 }, "geometry": { "type": "Point", "coordinates": [ 17.8824, 49.9072 ] } },
{ "type": "Feature", "properties": { "name": "Plenkovice Solar Power Plant", "primary_fuel": "Solar", "capacity_mw": 1.0 }, "geometry": { "type": "Point", "coordinates": [ 15.9943, 48.9218 ] } },
{ "type": "Feature", "properties": { "name": "Pohledy Solar Power Plant", "primary_fuel": "Solar", "capacity_mw": 5.8 }, "geometry": { "type": "Point", "coordinates": [ 16.5473, 49.6906 ] } },
{ "type": "Feature", "properties": { "name": "Polešovice Solar Power Plant", "primary_fuel": "Solar", "capacity_mw": 2.0 }, "geometry": { "type": "Point", "coordinates": [ 17.3501, 49.0211 ] } },
{ "type": "Feature", "properties": { "name": "Polom Solar Power Plant", "primary_fuel": "Solar", "capacity_mw": 1.5 }, "geometry": { "type": "Point", "coordinates": [ 17.8608, 49.5748 ] } },
{ "type": "Feature", "properties": { "name": "Porici power station", "primary_fuel": "Coal", "capacity_mw": 165.0 }, "geometry": { "type": "Point", "coordinates": [ 15.9634, 50.5727 ] } },
{ "type": "Feature", "properties": { "name": "Pravčice Solar Power Plant", "primary_fuel": "Solar", "capacity_mw": 3.2 }, "geometry": { "type": "Point", "coordinates": [ 17.4936, 49.319 ] } },
{ "type": "Feature", "properties": { "name": "Prostějov - Dulwich Trade Solar Power Plant", "primary_fuel": "Solar", "capacity_mw": 2.4 }, "geometry": { "type": "Point", "coordinates": [ 17.1507, 49.4627 ] } },
{ "type": "Feature", "properties": { "name": "Prostějov - Meridian Solar Power Plant", "primary_fuel": "Solar", "capacity_mw": 2.2 }, "geometry": { "type": "Point", "coordinates": [ 17.0963, 49.4388 ] } },
{ "type": "Feature", "properties": { "name": "Pržno Solar Power Plant", "primary_fuel": "Solar", "capacity_mw": 3.0 }, "geometry": { "type": "Point", "coordinates": [ 18.3604, 49.6181 ] } },
{ "type": "Feature", "properties": { "name": "Pucov Solar Power Plant", "primary_fuel": "Solar", "capacity_mw": 1.7 }, "geometry": { "type": "Point", "coordinates": [ 16.1823, 49.2497 ] } },
{ "type": "Feature", "properties": { "name": "Pánov Solar Power Plant", "primary_fuel": "Solar", "capacity_mw": 2.1 }, "geometry": { "type": "Point", "coordinates": [ 17.1425, 48.8825 ] } },
{ "type": "Feature", "properties": { "name": "Příkazy u Olomouce Solar Power Plant", "primary_fuel": "Solar", "capacity_mw": 1.6 }, "geometry": { "type": "Point", "coordinates": [ 17.1538, 49.6361 ] } },
{ "type": "Feature", "properties": { "name": "Přímětice Solar Power Plant", "primary_fuel": "Solar", "capacity_mw": 3.4 }, "geometry": { "type": "Point", "coordinates": [ 16.0266, 48.8849 ] } },
{ "type": "Feature", "properties": { "name": "Radvanice Solar Power Plant", "primary_fuel": "Solar", "capacity_mw": 2.3 }, "geometry": { "type": "Point", "coordinates": [ 17.4855, 49.5169 ] } },
{ "type": "Feature", "properties": { "name": "Raková u Konice Solar Power Plant", "primary_fuel": "Solar", "capacity_mw": 6.5 }, "geometry": { "type": "Point", "coordinates": [ 16.9441, 49.5992 ] } },
{ "type": "Feature", "properties": { "name": "Ratíškovice Solar Power Plant", "primary_fuel": "Solar", "capacity_mw": 2.2 }, "geometry": { "type": "Point", "coordinates": [ 17.176, 48.9118 ] } },
{ "type": "Feature", "properties": { "name": "Rokytnice nad Rokytnou Solar Power Plant", "primary_fuel": "Solar", "capacity_mw": 1.0 }, "geometry": { "type": "Point", "coordinates": [ 15.7718, 49.1804 ] } },
{ "type": "Feature", "properties": { "name": "Rosice Solar Power Plant", "primary_fuel": "Solar", "capacity_mw": 2.7 }, "geometry": { "type": "Point", "coordinates": [ 16.4026, 49.198 ] } },
{ "type": "Feature", "properties": { "name": "Rozstání Solar Power Plant", "primary_fuel": "Solar", "capacity_mw": 2.0 }, "geometry": { "type": "Point", "coordinates": [ 16.7226, 49.7428 ] } },
{ "type": "Feature", "properties": { "name": "Roštín 1 Solar Power Plant", "primary_fuel": "Solar", "capacity_mw": 1.2 }, "geometry": { "type": "Point", "coordinates": [ 17.2809, 49.1911 ] } },
{ "type": "Feature", "properties": { "name": "Roštín 2 Solar Power Plant", "primary_fuel": "Solar", "capacity_mw": 1.4 }, "geometry": { "type": "Point", "coordinates": [ 17.2846, 49.1929 ] } },
{ "type": "Feature", "properties": { "name": "Rožná Solar Power Plant", "primary_fuel": "Solar", "capacity_mw": 4.3 }, "geometry": { "type": "Point", "coordinates": [ 16.2241, 49.4921 ] } },
{ "type": "Feature", "properties": { "name": "Rudoltice - Steal Solar Power Plant", "primary_fuel": "Solar", "capacity_mw": 1.0 }, "geometry": { "type": "Point", "coordinates": [ 16.5822, 49.8981 ] } },
{ "type": "Feature", "properties": { "name": "Rudoltice - Will Solar Power Plant", "primary_fuel": "Solar", "capacity_mw": 1.4 }, "geometry": { "type": "Point", "coordinates": [ 16.569, 49.8922 ] } },
{ "type": "Feature", "properties": { "name": "Rybníček Solar Power Plant", "primary_fuel": "Solar", "capacity_mw": 4.6 }, "geometry": { "type": "Point", "coordinates": [ 17.0743, 49.2785 ] } },
{ "type": "Feature", "properties": { "name": "Rýmařov Solar Power Plant", "primary_fuel": "Solar", "capacity_mw": 1.1 }, "geometry": { "type": "Point", "coordinates": [ 17.2771, 49.9381 ] } },
{ "type": "Feature", "properties": { "name": "Sakvice", "primary_fuel": "Solar", "capacity_mw": 4.8 }, "geometry": { "type": "Point", "coordinates": [ 16.7287, 48.8822 ] } },
{ "type": "Feature", "properties": { "name": "Sazovice Solar Power Plant", "primary_fuel": "Solar", "capacity_mw": 1.2 }, "geometry": { "type": "Point", "coordinates": [ 17.565, 49.2371 ] } },
{ "type": "Feature", "properties": { "name": "Semanín Solar Power Plant", "primary_fuel": "Solar", "capacity_mw": 2.0 }, "geometry": { "type": "Point", "coordinates": [ 16.4587, 49.8598 ] } },
{ "type": "Feature", "properties": { "name": "Simirice Solar Power Plant", "primary_fuel": "Solar", "capacity_mw": 6.1 }, "geometry": { "type": "Point", "coordinates": [ 15.8455, 50.2965 ] } },
{ "type": "Feature", "properties": { "name": "Slapy", "primary_fuel": "Hydro", "capacity_mw": 144.0 }, "geometry": { "type": "Point", "coordinates": [ 17.4342, 49.8237 ] } },
{ "type": "Feature", "properties": { "name": "Slavičín A Solar Power Plant", "primary_fuel": "Solar", "capacity_mw": 2.2 }, "geometry": { "type": "Point", "coordinates": [ 17.9034, 49.0984 ] } },
{ "type": "Feature", "properties": { "name": "Slavičín B Solar Power Plant", "primary_fuel": "Solar", "capacity_mw": 2.1 }, "geometry": { "type": "Point", "coordinates": [ 17.9113, 49.0999 ] } },
{ "type": "Feature", "properties": { "name": "Slavkov Solar Power Plant", "primary_fuel": "Solar", "capacity_mw": 1.1 }, "geometry": { "type": "Point", "coordinates": [ 16.8737, 49.1466 ] } },
{ "type": "Feature", "properties": { "name": "Smržice Solar Power Plant", "primary_fuel": "Solar", "capacity_mw": 1.0 }, "geometry": { "type": "Point", "coordinates": [ 17.1081, 49.5029 ] } },
{ "type": "Feature", "properties": { "name": "Sokolnice - BH Green Solar Power Plant", "primary_fuel": "Solar", "capacity_mw": 4.3 }, "geometry": { "type": "Point", "coordinates": [ 16.6925, 49.1127 ] } },
{ "type": "Feature", "properties": { "name": "Sokolnice - Papeno Solar Power Plant", "primary_fuel": "Solar", "capacity_mw": 7.5 }, "geometry": { "type": "Point", "coordinates": [ 16.6856, 49.1115 ] } },
{ "type": "Feature", "properties": { "name": "Solnice Solar Power Plant", "primary_fuel": "Solar", "capacity_mw": 2.7 }, "geometry": { "type": "Point", "coordinates": [ 16.2548, 50.1909 ] } },
{ "type": "Feature", "properties": { "name": "Starojická Lhota Solar Power Plant", "primary_fuel": "Solar", "capacity_mw": 1.1 }, "geometry": { "type": "Point", "coordinates": [ 17.9129, 49.5653 ] } },
{ "type": "Feature", "properties": { "name": "Staré Nechanice Solar Power Plant", "primary_fuel": "Solar", "capacity_mw": 3.0 }, "geometry": { "type": "Point", "coordinates": [ 15.6218, 50.2372 ] } },
{ "type": "Feature", "properties": { "name": "Stošíkovice na Louce Solar Power Plant", "primary_fuel": "Solar", "capacity_mw": 1.7 }, "geometry": { "type": "Point", "coordinates": [ 16.2053, 48.9027 ] } },
{ "type": "Feature", "properties": { "name": "Strážovice Solar Power Plant", "primary_fuel": "Solar", "capacity_mw": 2.0 }, "geometry": { "type": "Point", "coordinates": [ 17.044, 49.0049 ] } },
{ "type": "Feature", "properties": { "name": "Stálky Solar Power Plant", "primary_fuel": "Solar", "capacity_mw": 4.0 }, "geometry": { "type": "Point", "coordinates": [ 15.6968, 48.879 ] } },
{ "type": "Feature", "properties": { "name": "Stěžírky Solar Power Plant", "primary_fuel": "Solar", "capacity_mw": 1.4 }, "geometry": { "type": "Point", "coordinates": [ 15.7324, 50.2372 ] } },
{ "type": "Feature", "properties": { "name": "Suchohrdly Solar Power Plant", "primary_fuel": "Solar", "capacity_mw": 2.1 }, "geometry": { "type": "Point", "coordinates": [ 16.0816, 48.8628 ] } },
{ "type": "Feature", "properties": { "name": "Sudoměřice Solar Power Plant", "primary_fuel": "Solar", "capacity_mw": 3.5 }, "geometry": { "type": "Point", "coordinates": [ 17.2373, 48.8697 ] } },
{ "type": "Feature", "properties": { "name": "Sudslava Solar Power Plant", "primary_fuel": "Solar", "capacity_mw": 2.9 }, "geometry": { "type": "Point", "coordinates": [ 16.2932, 50.0347 ] } },
{ "type": "Feature", "properties": { "name": "Svatoslav Solar Power Plant", "primary_fuel": "Solar", "capacity_mw": 1.2 }, "geometry": { "type": "Point", "coordinates": [ 15.8714, 49.3211 ] } },
{ "type": "Feature", "properties": { "name": "Svitavy Solar Power Plant", "primary_fuel": "Solar", "capacity_mw": 4.0 }, "geometry": { "type": "Point", "coordinates": [ 16.4884, 49.7689 ] } },
{ "type": "Feature", "properties": { "name": "Syrovice - Ořechovská Solar Power Plant", "primary_fuel": "Solar", "capacity_mw": 3.1 }, "geometry": { "type": "Point", "coordinates": [ 16.535, 49.0838 ] } },
{ "type": "Feature", "properties": { "name": "Syrovice - Rajhradská Solar Power Plant", "primary_fuel": "Solar", "capacity_mw": 3.1 }, "geometry": { "type": "Point", "coordinates": [ 16.5747, 49.0807 ] } },
{ "type": "Feature", "properties": { "name": "Tasov Solar Power Plant", "primary_fuel": "Solar", "capacity_mw": 3.1 }, "geometry": { "type": "Point", "coordinates": [ 17.4345, 48.9097 ] } },
{ "type": "Feature", "properties": { "name": "Tichá Solar Power Plant", "primary_fuel": "Solar", "capacity_mw": 1.0 }, "geometry": { "type": "Point", "coordinates": [ 18.2327, 49.5552 ] } },
{ "type": "Feature", "properties": { "name": "Tišnov Solar Power Plant", "primary_fuel": "Solar", "capacity_mw": 2.2 }, "geometry": { "type": "Point", "coordinates": [ 16.4449, 49.3353 ] } },
{ "type": "Feature", "properties": { "name": "Trebovice Solar Power Plant", "primary_fuel": "Solar", "capacity_mw": 1.0 }, "geometry": { "type": "Point", "coordinates": [ 16.5133, 49.8603 ] } },
{ "type": "Feature", "properties": { "name": "Trebovice power station", "primary_fuel": "Coal", "capacity_mw": 177.0 }, "geometry": { "type": "Point", "coordinates": [ 18.2113, 49.8319 ] } },
{ "type": "Feature", "properties": { "name": "Troskotovice Solar Power Plant", "primary_fuel": "Solar", "capacity_mw": 1.0 }, "geometry": { "type": "Point", "coordinates": [ 16.4587, 48.9291 ] } },
{ "type": "Feature", "properties": { "name": "Trávní Dvůr Solar Power Plant", "primary_fuel": "Solar", "capacity_mw": 1.8 }, "geometry": { "type": "Point", "coordinates": [ 16.4261, 48.7949 ] } },
{ "type": "Feature", "properties": { "name": "Tvrdonice Solar Power Plant", "primary_fuel": "Solar", "capacity_mw": 1.0 }, "geometry": { "type": "Point", "coordinates": [ 16.9427, 48.7778 ] } },
{ "type": "Feature", "properties": { "name": "Třemešná Solar Power Plant", "primary_fuel": "Solar", "capacity_mw": 1.0 }, "geometry": { "type": "Point", "coordinates": [ 17.5594, 50.2187 ] } },
{ "type": "Feature", "properties": { "name": "Uherský Brod Solar Power Plant", "primary_fuel": "Solar", "capacity_mw": 10.2 }, "geometry": { "type": "Point", "coordinates": [ 17.6584, 49.0063 ] } },
{ "type": "Feature", "properties": { "name": "Uherský Ostroh 1 Solar Power Plant", "primary_fuel": "Solar", "capacity_mw": 1.0 }, "geometry": { "type": "Point", "coordinates": [ 17.4032, 48.9718 ] } },
{ "type": "Feature", "properties": { "name": "Uherský Ostroh 2 Solar Power Plant", "primary_fuel": "Solar", "capacity_mw": 2.0 }, "geometry": { "type": "Point", "coordinates": [ 17.4002, 48.9735 ] } },
{ "type": "Feature", "properties": { "name": "Valašské Příkazy Solar Power Plant", "primary_fuel": "Solar", "capacity_mw": 1.2 }, "geometry": { "type": "Point", "coordinates": [ 18.0648, 49.1646 ] } },
{ "type": "Feature", "properties": { "name": "Velká nad Veličkou Solar Power Plant", "primary_fuel": "Solar", "capacity_mw": 3.2 }, "geometry": { "type": "Point", "coordinates": [ 17.5088, 48.8934 ] } },
{ "type": "Feature", "properties": { "name": "Velké Meziříčí - Kerberos Solar Power Plant", "primary_fuel": "Solar", "capacity_mw": 2.0 }, "geometry": { "type": "Point", "coordinates": [ 15.9929, 49.3615 ] } },
{ "type": "Feature", "properties": { "name": "Velké Němčice Solar Power Plant", "primary_fuel": "Solar", "capacity_mw": 1.0 }, "geometry": { "type": "Point", "coordinates": [ 16.6819, 48.9891 ] } },
{ "type": "Feature", "properties": { "name": "Velké Těšany Solar Power Plant", "primary_fuel": "Solar", "capacity_mw": 6.3 }, "geometry": { "type": "Point", "coordinates": [ 17.3991, 49.2539 ] } },
{ "type": "Feature", "properties": { "name": "Velký Karlov Solar Power Plant", "primary_fuel": "Solar", "capacity_mw": 2.8 }, "geometry": { "type": "Point", "coordinates": [ 16.3202, 48.8045 ] } },
{ "type": "Feature", "properties": { "name": "Velký Týnec Solar Power Plant", "primary_fuel": "Solar", "capacity_mw": 1.4 }, "geometry": { "type": "Point", "coordinates": [ 17.341, 49.5637 ] } },
{ "type": "Feature", "properties": { "name": "Velký Třebešov Solar Power Plant", "primary_fuel": "Solar", "capacity_mw": 2.7 }, "geometry": { "type": "Point", "coordinates": [ 16.0001, 50.3974 ] } },
{ "type": "Feature", "properties": { "name": "Velký Újezd Solar Power Plant", "primary_fuel": "Solar", "capacity_mw": 1.9 }, "geometry": { "type": "Point", "coordinates": [ 17.4758, 49.5704 ] } },
{ "type": "Feature", "properties": { "name": "Veselí nad Moravou Solar Power Plant", "primary_fuel": "Solar", "capacity_mw": 14.0 }, "geometry": { "type": "Point", "coordinates": [ 17.3847, 48.94 ] } },
{ "type": "Feature", "properties": { "name": "Vladislav Solar Power Plant", "primary_fuel": "Solar", "capacity_mw": 1.2 }, "geometry": { "type": "Point", "coordinates": [ 15.9836, 49.2132 ] } },
{ "type": "Feature", "properties": { "name": "Vlkoš Solar Power Plant", "primary_fuel": "Solar", "capacity_mw": 6.7 }, "geometry": { "type": "Point", "coordinates": [ 17.146, 49.0003 ] } },
{ "type": "Feature", "properties": { "name": "Vnorovy Solar Power Plant", "primary_fuel": "Solar", "capacity_mw": 3.0 }, "geometry": { "type": "Point", "coordinates": [ 17.3323, 48.9206 ] } },
{ "type": "Feature", "properties": { "name": "Voděrady Solar Power Plant", "primary_fuel": "Solar", "capacity_mw": 4.0 }, "geometry": { "type": "Point", "coordinates": [ 16.2896, 49.9448 ] } },
{ "type": "Feature", "properties": { "name": "Vranovská Ves - Green Nature Solar Power Plant", "primary_fuel": "Solar", "capacity_mw": 4.4 }, "geometry": { "type": "Point", "coordinates": [ 15.9125, 48.9448 ] } },
{ "type": "Feature", "properties": { "name": "Vranovská Ves - ČEZ Solar Power Plant", "primary_fuel": "Solar", "capacity_mw": 16.0 }, "geometry": { "type": "Point", "coordinates": [ 15.9154, 48.9411 ] } },
{ "type": "Feature", "properties": { "name": "Vrbice", "primary_fuel": "Solar", "capacity_mw": 5.0 }, "geometry": { "type": "Point", "coordinates": [ 16.9225, 48.9805 ] } },
{ "type": "Feature", "properties": { "name": "Vysokov Solar Power Plant", "primary_fuel": "Solar", "capacity_mw": 1.9 }, "geometry": { "type": "Point", "coordinates": [ 16.099, 50.3983 ] } },
{ "type": "Feature", "properties": { "name": "Vícov Solar Power Plant", "primary_fuel": "Solar", "capacity_mw": 1.7 }, "geometry": { "type": "Point", "coordinates": [ 16.9064, 49.5975 ] } },
{ "type": "Feature", "properties": { "name": "Výšovice Solar Power Plant", "primary_fuel": "Solar", "capacity_mw": 1.2 }, "geometry": { "type": "Point", "coordinates": [ 17.1326, 49.4231 ] } },
{ "type": "Feature", "properties": { "name": "Vřesovice Solar Power Plant", "primary_fuel": "Solar", "capacity_mw": 3.4 }, "geometry": { "type": "Point", "coordinates": [ 17.1442, 49.3931 ] } },
{ "type": "Feature", "properties": { "name": "Zaječí Solar Power Plant", "primary_fuel": "Solar", "capacity_mw": 1.9 }, "geometry": { "type": "Point", "coordinates": [ 16.7287, 48.8822 ] } },
{ "type": "Feature", "properties": { "name": "Zakřany Solar Power Plant", "primary_fuel": "Solar", "capacity_mw": 5.4 }, "geometry": { "type": "Point", "coordinates": [ 16.3386, 49.1676 ] } },
{ "type": "Feature", "properties": { "name": "Zašová Solar Power Plant", "primary_fuel": "Solar", "capacity_mw": 9.3 }, "geometry": { "type": "Point", "coordinates": [ 17.9129, 49.5653 ] } },
{ "type": "Feature", "properties": { "name": "Zbýšov Solar Power Plant", "primary_fuel": "Solar", "capacity_mw": 1.3 }, "geometry": { "type": "Point", "coordinates": [ 16.3564, 49.1641 ] } },
{ "type": "Feature", "properties": { "name": "Zlin power station", "primary_fuel": "Coal", "capacity_mw": 64.0 }, "geometry": { "type": "Point", "coordinates": [ 17.654, 49.2257 ] } },
{ "type": "Feature", "properties": { "name": "Únanov Solar Power Plant", "primary_fuel": "Solar", "capacity_mw": 1.5 }, "geometry": { "type": "Point", "coordinates": [ 16.0674, 48.8956 ] } },
{ "type": "Feature", "properties": { "name": "Čehovice Solar Power Plant", "primary_fuel": "Solar", "capacity_mw": 2.3 }, "geometry": { "type": "Point", "coordinates": [ 17.1913, 49.4234 ] } },
{ "type": "Feature", "properties": { "name": "Čeladná Solar Power Plant", "primary_fuel": "Solar", "capacity_mw": 1.4 }, "geometry": { "type": "Point", "coordinates": [ 18.3439, 49.5599 ] } },
{ "type": "Feature", "properties": { "name": "Černilov Solar Power Plant", "primary_fuel": "Solar", "capacity_mw": 1.9 }, "geometry": { "type": "Point", "coordinates": [ 15.945, 50.2641 ] } },
{ "type": "Feature", "properties": { "name": "Česká Skalice Solar Power Plant", "primary_fuel": "Solar", "capacity_mw": 2.8 }, "geometry": { "type": "Point", "coordinates": [ 16.0309, 50.387 ] } },
{ "type": "Feature", "properties": { "name": "Řehoty Solar Power Plant", "primary_fuel": "Solar", "capacity_mw": 1.0 }, "geometry": { "type": "Point", "coordinates": [ 15.5511, 50.2562 ] } },
{ "type": "Feature", "properties": { "name": "Šatov Solar Power Plant", "primary_fuel": "Solar", "capacity_mw": 2.5 }, "geometry": { "type": "Point", "coordinates": [ 16.0243, 48.7871 ] } },
{ "type": "Feature", "properties": { "name": "Štítary Solar Power Plant", "primary_fuel": "Solar", "capacity_mw": 2.9 }, "geometry": { "type": "Point", "coordinates": [ 15.8089, 48.9325 ] } },
{ "type": "Feature", "properties": { "name": "Žabčice Solar Power Plant", "primary_fuel": "Solar", "capacity_mw": 5.6 }, "geometry": { "type": "Point", "coordinates": [ 16.5923, 49.0143 ] } },
{ "type": "Feature", "properties": { "name": "Žamberk Solar Power Plant", "primary_fuel": "Solar", "capacity_mw": 1.1 }, "geometry": { "type": "Point", "coordinates": [ 16.4822, 50.0906 ] } },
{ "type": "Feature", "properties": { "name": "Žatčany Solar Power Plant", "primary_fuel": "Solar", "capacity_mw": 1.0 }, "geometry": { "type": "Point", "coordinates": [ 16.7265, 49.0958 ] } },
{ "type": "Feature", "properties": { "name": "Želeč - Olomouc Solar Power Plant", "primary_fuel": "Solar", "capacity_mw": 1.7 }, "geometry": { "type": "Point", "coordinates": [ 17.1026, 49.3425 ] } },
{ "type": "Feature", "properties": { "name": "Žeraviny Solar Power Plant", "primary_fuel": "Solar", "capacity_mw": 1.7 }, "geometry": { "type": "Point", "coordinates": [ 17.3871, 48.9042 ] } },
{ "type": "Feature", "properties": { "name": "Žákovice Solar Power Plant", "primary_fuel": "Solar", "capacity_mw": 1.1 }, "geometry": { "type": "Point", "coordinates": [ 17.6558, 49.4565 ] } },
{ "type": "Feature", "properties": { "name": "Bełchatów", "primary_fuel": "Coal", "capacity_mw": 5472.0 }, "geometry": { "type": "Point", "coordinates": [ 19.3265, 51.2679 ] } },
{ "type": "Feature", "properties": { "name": "Bielkowo", "primary_fuel": "Hydro", "capacity_mw": 7.0 }, "geometry": { "type": "Point", "coordinates": [ 18.51, 54.2695 ] } },
{ "type": "Feature", "properties": { "name": "Blachownia", "primary_fuel": "Gas", "capacity_mw": 158.0 }, "geometry": { "type": "Point", "coordinates": [ 18.2907, 50.3562 ] } },
{ "type": "Feature", "properties": { "name": "Brąswałd", "primary_fuel": "Hydro", "capacity_mw": 2.0 }, "geometry": { "type": "Point", "coordinates": [ 20.4041, 53.84 ] } },
{ "type": "Feature", "properties": { "name": "CEZ Skawina", "primary_fuel": "Coal", "capacity_mw": 330.0 }, "geometry": { "type": "Point", "coordinates": [ 19.8047, 49.9767 ] } },
{ "type": "Feature", "properties": { "name": "Dobrzeń", "primary_fuel": "Hydro", "capacity_mw": 2.0 }, "geometry": { "type": "Point", "coordinates": [ 17.8332, 50.7558 ] } },
{ "type": "Feature", "properties": { "name": "Dębe", "primary_fuel": "Hydro", "capacity_mw": 21.0 }, "geometry": { "type": "Point", "coordinates": [ 20.9237, 52.4882 ] } },
{ "type": "Feature", "properties": { "name": "EC Andrychów", "primary_fuel": "Coal", "capacity_mw": 12.0 }, "geometry": { "type": "Point", "coordinates": [ 19.3369, 49.8524 ] } },
{ "type": "Feature", "properties": { "name": "EC Azoty Tarnów", "primary_fuel": "Coal", "capacity_mw": 97.0 }, "geometry": { "type": "Point", "coordinates": [ 20.9082, 50.0277 ] } },
{ "type": "Feature", "properties": { "name": "EC Białystok", "primary_fuel": "Coal", "capacity_mw": 198.0 }, "geometry": { "type": "Point", "coordinates": [ 23.1689, 53.1486 ] } },
{ "type": "Feature", "properties": { "name": "EC Bielsko-Biała 1", "primary_fuel": "Gas", "capacity_mw": 77.0 }, "geometry": { "type": "Point", "coordinates": [ 19.0538, 49.8123 ] } },
{ "type": "Feature", "properties": { "name": "EC Bielsko-Północ 2", "primary_fuel": "Oil", "capacity_mw": 55.0 }, "geometry": { "type": "Point", "coordinates": [ 19.0309, 49.8733 ] } },
{ "type": "Feature", "properties": { "name": "EC Bydgoszcz I", "primary_fuel": "Coal", "capacity_mw": 14.0 }, "geometry": { "type": "Point", "coordinates": [ 17.9836, 53.1355 ] } },
{ "type": "Feature", "properties": { "name": "EC Bydgoszcz II", "primary_fuel": "Coal", "capacity_mw": 227.0 }, "geometry": { "type": "Point", "coordinates": [ 18.0879, 53.0995 ] } },
{ "type": "Feature", "properties": { "name": "EC Będzin", "primary_fuel": "Coal", "capacity_mw": 82.0 }, "geometry": { "type": "Point", "coordinates": [ 19.1384, 50.3019 ] } },
{ "type": "Feature", "properties": { "name": "EC Chorzów Elcho", "primary_fuel": "Coal", "capacity_mw": 226.0 }, "geometry": { "type": "Point", "coordinates": [ 18.9695, 50.3079 ] } },
{ "type": "Feature", "properties": { "name": "EC Czechnica", "primary_fuel": "Coal", "capacity_mw": 110.0 }, "geometry": { "type": "Point", "coordinates": [ 17.1498, 51.0381 ] } },
{ "type": "Feature", "properties": { "name": "EC Dębieńsko-Megawat", "primary_fuel": "Gas", "capacity_mw": 16.0 }, "geometry": { "type": "Point", "coordinates": [ 18.6505, 50.1576 ] } },
{ "type": "Feature", "properties": { "name": "EC Elbląg", "primary_fuel": "Coal", "capacity_mw": 42.0 }, "geometry": { "type": "Point", "coordinates": [ 19.3855, 54.1805 ] } },
{ "type": "Feature", "properties": { "name": "EC Fortum", "primary_fuel": "Coal", "capacity_mw": 68.0 }, "geometry": { "type": "Point", "coordinates": [ 19.1247, 50.8273 ] } },
{ "type": "Feature", "properties": { "name": "EC GIGA", "primary_fuel": "Coal", "capacity_mw": 6.0 }, "geometry": { "type": "Point", "coordinates": [ 22.7079, 51.2258 ] } },
{ "type": "Feature", "properties": { "name": "EC Gorlice", "primary_fuel": "Coal", "capacity_mw": 5.0 }, "geometry": { "type": "Point", "coordinates": [ 21.1821, 49.6769 ] } },
{ "type": "Feature", "properties": { "name": "EC Grudziądz", "primary_fuel": "Coal", "capacity_mw": 18.0 }, "geometry": { "type": "Point", "coordinates": [ 18.7719, 53.4792 ] } },
{ "type": "Feature", "properties": { "name": "EC International Paper Kwidzyn", "primary_fuel": "Coal", "capacity_mw": 112.0 }, "geometry": { "type": "Point", "coordinates": [ 18.921, 53.7002 ] } },
{ "type": "Feature", "properties": { "name": "EC Janikosoda", "primary_fuel": "Coal", "capacity_mw": 56.0 }, "geometry": { "type": "Point", "coordinates": [ 18.1098, 52.7664 ] } },
{ "type": "Feature", "properties": { "name": "EC Kalisz-Piwonice", "primary_fuel": "Coal", "capacity_mw": 8.0 }, "geometry": { "type": "Point", "coordinates": [ 18.1062, 51.7297 ] } },
{ "type": "Feature", "properties": { "name": "EC Katowice", "primary_fuel": "Coal", "capacity_mw": 135.0 }, "geometry": { "type": "Point", "coordinates": [ 19.0532, 50.2855 ] } },
{ "type": "Feature", "properties": { "name": "EC Kielce", "primary_fuel": "Biomass", "capacity_mw": 10.0 }, "geometry": { "type": "Point", "coordinates": [ 20.6118, 50.8959 ] } },
{ "type": "Feature", "properties": { "name": "EC Knurów", "primary_fuel": "Coal", "capacity_mw": 8.0 }, "geometry": { "type": "Point", "coordinates": [ 18.6785, 50.2153 ] } },
{ "type": "Feature", "properties": { "name": "EC Kraków 1", "primary_fuel": "Coal", "capacity_mw": 446.0 }, "geometry": { "type": "Point", "coordinates": [ 20.0061, 50.0535 ] } },
{ "type": "Feature", "properties": { "name": "EC Lublin Wrotków", "primary_fuel": "Gas", "capacity_mw": 231.0 }, "geometry": { "type": "Point", "coordinates": [ 22.5583, 51.2161 ] } },
{ "type": "Feature", "properties": { "name": "EC Marcel", "primary_fuel": "Coal", "capacity_mw": 37.0 }, "geometry": { "type": "Point", "coordinates": [ 18.4842, 50.0433 ] } },
{ "type": "Feature", "properties": { "name": "EC Miechowice", "primary_fuel": "Coal", "capacity_mw": 125.0 }, "geometry": { "type": "Point", "coordinates": [ 18.8419, 50.3488 ] } },
{ "type": "Feature", "properties": { "name": "EC Mielec", "primary_fuel": "Coal", "capacity_mw": 33.0 }, "geometry": { "type": "Point", "coordinates": [ 21.4644, 50.3046 ] } },
{ "type": "Feature", "properties": { "name": "EC Mondi Świecie", "primary_fuel": "Coal", "capacity_mw": 123.0 }, "geometry": { "type": "Point", "coordinates": [ 18.3751, 53.3938 ] } },
{ "type": "Feature", "properties": { "name": "EC Moszczenica", "primary_fuel": "Coal", "capacity_mw": 38.0 }, "geometry": { "type": "Point", "coordinates": [ 18.5702, 49.9415 ] } },
{ "type": "Feature", "properties": { "name": "EC Nowa", "primary_fuel": "Coal", "capacity_mw": 150.0 }, "geometry": { "type": "Point", "coordinates": [ 19.2771, 50.3478 ] } },
{ "type": "Feature", "properties": { "name": "EC Nowa Sarzyna", "primary_fuel": "Gas", "capacity_mw": 116.0 }, "geometry": { "type": "Point", "coordinates": [ 22.3237, 50.3172 ] } },
{ "type": "Feature", "properties": { "name": "EC Opolszczyzna - ECO", "primary_fuel": "Coal", "capacity_mw": 10.0 }, "geometry": { "type": "Point", "coordinates": [ 17.9201, 50.6872 ] } },
{ "type": "Feature", "properties": { "name": "EC Oświęcim", "primary_fuel": "Coal", "capacity_mw": 79.0 }, "geometry": { "type": "Point", "coordinates": [ 19.2735, 50.0395 ] } },
{ "type": "Feature", "properties": { "name": "EC PKN Orlen", "primary_fuel": "Oil", "capacity_mw": 600.0 }, "geometry": { "type": "Point", "coordinates": [ 19.6879, 52.5843 ] } },
{ "type": "Feature", "properties": { "name": "EC Pniówek", "primary_fuel": "Gas", "capacity_mw": 14.0 }, "geometry": { "type": "Point", "coordinates": [ 18.6943, 49.9672 ] } },
{ "type": "Feature", "properties": { "name": "EC Pruszków", "primary_fuel": "Coal", "capacity_mw": 9.0 }, "geometry": { "type": "Point", "coordinates": [ 20.8006, 52.1707 ] } },
{ "type": "Feature", "properties": { "name": "EC Rzeszów", "primary_fuel": "Gas", "capacity_mw": 129.0 }, "geometry": { "type": "Point", "coordinates": [ 22.0294, 50.0646 ] } },
{ "type": "Feature", "properties": { "name": "EC Siedlce", "primary_fuel": "Gas", "capacity_mw": 51.0 }, "geometry": { "type": "Point", "coordinates": [ 22.3061, 52.1572 ] } },
{ "type": "Feature", "properties": { "name": "EC Siekierki", "primary_fuel": "Coal", "capacity_mw": 620.0 }, "geometry": { "type": "Point", "coordinates": [ 21.0873, 52.1901 ] } },
{ "type": "Feature", "properties": { "name": "EC Soda Mątwy", "primary_fuel": "Coal", "capacity_mw": 36.0 }, "geometry": { "type": "Point", "coordinates": [ 18.2409, 52.7671 ] } },
{ "type": "Feature", "properties": { "name": "EC Starachowice", "primary_fuel": "Coal", "capacity_mw": 36.0 }, "geometry": { "type": "Point", "coordinates": [ 21.0799, 51.0299 ] } },
{ "type": "Feature", "properties": { "name": "EC Suszec", "primary_fuel": "Gas", "capacity_mw": 11.0 }, "geometry": { "type": "Point", "coordinates": [ 18.7609, 50.0468 ] } },
{ "type": "Feature", "properties": { "name": "EC Szombierki", "primary_fuel": "Coal", "capacity_mw": 9.0 }, "geometry": { "type": "Point", "coordinates": [ 18.8864, 50.3454 ] } },
{ "type": "Feature", "properties": { "name": "EC Toruń", "primary_fuel": "Gas", "capacity_mw": 106.0 }, "geometry": { "type": "Point", "coordinates": [ 18.6932, 53.0475 ] } },
{ "type": "Feature", "properties": { "name": "EC Tychy", "primary_fuel": "Coal", "capacity_mw": 105.0 }, "geometry": { "type": "Point", "coordinates": [ 19.0164, 50.1059 ] } },
{ "type": "Feature", "properties": { "name": "EC WSK Rzeszów", "primary_fuel": "Coal", "capacity_mw": 12.0 }, "geometry": { "type": "Point", "coordinates": [ 21.9813, 50.0146 ] } },
{ "type": "Feature", "properties": { "name": "EC Wrocław", "primary_fuel": "Coal", "capacity_mw": 263.0 }, "geometry": { "type": "Point", "coordinates": [ 17.0241, 51.1234 ] } },
{ "type": "Feature", "properties": { "name": "EC Włocławek", "primary_fuel": "Gas", "capacity_mw": 453.0 }, "geometry": { "type": "Point", "coordinates": [ 18.9589, 52.7074 ] } },
{ "type": "Feature", "properties": { "name": "EC Zabrze", "primary_fuel": "Coal", "capacity_mw": 106.0 }, "geometry": { "type": "Point", "coordinates": [ 18.8099, 50.2956 ] } },
{ "type": "Feature", "properties": { "name": "EC Zduńska Wola", "primary_fuel": "Coal", "capacity_mw": 12.0 }, "geometry": { "type": "Point", "coordinates": [ 18.9675, 51.5999 ] } },
{ "type": "Feature", "properties": { "name": "EC Zgierz", "primary_fuel": "Coal", "capacity_mw": 39.0 }, "geometry": { "type": "Point", "coordinates": [ 19.3939, 51.8413 ] } },
{ "type": "Feature", "properties": { "name": "EC Zofiówka", "primary_fuel": "Coal", "capacity_mw": 64.0 }, "geometry": { "type": "Point", "coordinates": [ 18.6266, 49.9642 ] } },
{ "type": "Feature", "properties": { "name": "EC Łódź-3", "primary_fuel": "Coal", "capacity_mw": 205.0 }, "geometry": { "type": "Point", "coordinates": [ 19.4216, 51.7985 ] } },
{ "type": "Feature", "properties": { "name": "EC Łódź-4", "primary_fuel": "Coal", "capacity_mw": 198.0 }, "geometry": { "type": "Point", "coordinates": [ 19.5403, 51.7462 ] } },
{ "type": "Feature", "properties": { "name": "EC Żerań", "primary_fuel": "Coal", "capacity_mw": 386.0 }, "geometry": { "type": "Point", "coordinates": [ 20.9942, 52.2945 ] } },
{ "type": "Feature", "properties": { "name": "EW Kisielice", "primary_fuel": "Wind", "capacity_mw": 41.0 }, "geometry": { "type": "Point", "coordinates": [ 19.269, 53.6005 ] } },
{ "type": "Feature", "properties": { "name": "EW Kisielice II", "primary_fuel": "Wind", "capacity_mw": 12.0 }, "geometry": { "type": "Point", "coordinates": [ 18.9334, 53.6268 ] } },
{ "type": "Feature", "properties": { "name": "EW Malbork-Koniecwald", "primary_fuel": "Wind", "capacity_mw": 18.0 }, "geometry": { "type": "Point", "coordinates": [ 19.0379, 53.9716 ] } },
{ "type": "Feature", "properties": { "name": "EW Pelplin", "primary_fuel": "Wind", "capacity_mw": 49.0 }, "geometry": { "type": "Point", "coordinates": [ 18.7299, 53.9085 ] } },
{ "type": "Feature", "properties": { "name": "EW Żuromin", "primary_fuel": "Wind", "capacity_mw": 61.0 }, "geometry": { "type": "Point", "coordinates": [ 19.9015, 53.0474 ] } },
{ "type": "Feature", "properties": { "name": "FF Bordziłówka", "primary_fuel": "Solar", "capacity_mw": 1.0 }, "geometry": { "type": "Point", "coordinates": [ 23.1633, 51.8469 ] } },
{ "type": "Feature", "properties": { "name": "FF Cieszanów", "primary_fuel": "Solar", "capacity_mw": 2.0 }, "geometry": { "type": "Point", "coordinates": [ 23.1267, 50.2408 ] } },
{ "type": "Feature", "properties": { "name": "FF Czernikowo", "primary_fuel": "Solar", "capacity_mw": 4.0 }, "geometry": { "type": "Point", "coordinates": [ 18.9595, 52.9366 ] } },
{ "type": "Feature", "properties": { "name": "FF Delta (Przejazdowo/Gdańsk)", "primary_fuel": "Solar", "capacity_mw": 2.0 }, "geometry": { "type": "Point", "coordinates": [ 18.7532, 54.3363 ] } },
{ "type": "Feature", "properties": { "name": "FF Kolno", "primary_fuel": "Solar", "capacity_mw": 2.0 }, "geometry": { "type": "Point", "coordinates": [ 21.9149, 53.3908 ] } },
{ "type": "Feature", "properties": { "name": "FF Ostrzeszów", "primary_fuel": "Solar", "capacity_mw": 2.0 }, "geometry": { "type": "Point", "coordinates": [ 17.9359, 51.4147 ] } },
{ "type": "Feature", "properties": { "name": "FF Wierzchosławice", "primary_fuel": "Solar", "capacity_mw": 1.0 }, "geometry": { "type": "Point", "coordinates": [ 20.8531, 50.0422 ] } },
{ "type": "Feature", "properties": { "name": "FF Zagroby-Zakrzewo", "primary_fuel": "Solar", "capacity_mw": 1.0 }, "geometry": { "type": "Point", "coordinates": [ 22.1448, 53.0044 ] } },
{ "type": "Feature", "properties": { "name": "FW Bystra", "primary_fuel": "Wind", "capacity_mw": 24.0 }, "geometry": { "type": "Point", "coordinates": [ 18.7436, 54.297 ] } },
{ "type": "Feature", "properties": { "name": "FW Czarnożyły", "primary_fuel": "Wind", "capacity_mw": 22.0 }, "geometry": { "type": "Point", "coordinates": [ 18.5969, 51.2859 ] } },
{ "type": "Feature", "properties": { "name": "FW Dąbrowice", "primary_fuel": "Wind", "capacity_mw": 36.0 }, "geometry": { "type": "Point", "coordinates": [ 19.0603, 52.3094 ] } },
{ "type": "Feature", "properties": { "name": "FW Galicja", "primary_fuel": "Wind", "capacity_mw": 12.0 }, "geometry": { "type": "Point", "coordinates": [ 22.7843, 49.8502 ] } },
{ "type": "Feature", "properties": { "name": "FW Gawłowice", "primary_fuel": "Wind", "capacity_mw": 48.0 }, "geometry": { "type": "Point", "coordinates": [ 18.8815, 53.3484 ] } },
{ "type": "Feature", "properties": { "name": "FW Inowrocław", "primary_fuel": "Wind", "capacity_mw": 32.0 }, "geometry": { "type": "Point", "coordinates": [ 18.2206, 52.7692 ] } },
{ "type": "Feature", "properties": { "name": "FW Iłża", "primary_fuel": "Wind", "capacity_mw": 54.0 }, "geometry": { "type": "Point", "coordinates": [ 21.199, 51.168 ] } },
{ "type": "Feature", "properties": { "name": "FW Jóźwin", "primary_fuel": "Wind", "capacity_mw": 25.0 }, "geometry": { "type": "Point", "coordinates": [ 18.2203, 52.3548 ] } },
{ "type": "Feature", "properties": { "name": "FW Korsze", "primary_fuel": "Wind", "capacity_mw": 70.0 }, "geometry": { "type": "Point", "coordinates": [ 21.18, 54.1514 ] } },
{ "type": "Feature", "properties": { "name": "FW Krobia", "primary_fuel": "Wind", "capacity_mw": 33.0 }, "geometry": { "type": "Point", "coordinates": [ 16.9196, 51.7158 ] } },
{ "type": "Feature", "properties": { "name": "FW Lipniki", "primary_fuel": "Wind", "capacity_mw": 30.0 }, "geometry": { "type": "Point", "coordinates": [ 17.1067, 50.5355 ] } },
{ "type": "Feature", "properties": { "name": "FW Lubartów", "primary_fuel": "Wind", "capacity_mw": 48.0 }, "geometry": { "type": "Point", "coordinates": [ 22.3023, 51.5016 ] } },
{ "type": "Feature", "properties": { "name": "FW Modlikowice", "primary_fuel": "Wind", "capacity_mw": 24.0 }, "geometry": { "type": "Point", "coordinates": [ 15.8825, 51.2166 ] } },
{ "type": "Feature", "properties": { "name": "FW Mogilno I-VI", "primary_fuel": "Wind", "capacity_mw": 34.0 }, "geometry": { "type": "Point", "coordinates": [ 18.1439, 52.8157 ] } },
{ "type": "Feature", "properties": { "name": "FW Poniec II", "primary_fuel": "Wind", "capacity_mw": 30.0 }, "geometry": { "type": "Point", "coordinates": [ 16.7103, 51.843 ] } },
{ "type": "Feature", "properties": { "name": "FW Pągów", "primary_fuel": "Wind", "capacity_mw": 51.0 }, "geometry": { "type": "Point", "coordinates": [ 17.6246, 51.14 ] } },
{ "type": "Feature", "properties": { "name": "FW Radziejów", "primary_fuel": "Wind", "capacity_mw": 42.0 }, "geometry": { "type": "Point", "coordinates": [ 18.4769, 52.6349 ] } },
{ "type": "Feature", "properties": { "name": "FW Rajgród", "primary_fuel": "Wind", "capacity_mw": 25.0 }, "geometry": { "type": "Point", "coordinates": [ 22.573, 53.7006 ] } },
{ "type": "Feature", "properties": { "name": "FW Sanniki", "primary_fuel": "Wind", "capacity_mw": 30.0 }, "geometry": { "type": "Point", "coordinates": [ 19.8852, 52.3188 ] } },
{ "type": "Feature", "properties": { "name": "FW Skurpie", "primary_fuel": "Wind", "capacity_mw": 44.0 }, "geometry": { "type": "Point", "coordinates": [ 20.1046, 53.2787 ] } },
{ "type": "Feature", "properties": { "name": "FW Taczalin", "primary_fuel": "Wind", "capacity_mw": 45.0 }, "geometry": { "type": "Point", "coordinates": [ 16.2812, 51.157 ] } },
{ "type": "Feature", "properties": { "name": "FW Łukaszów", "primary_fuel": "Wind", "capacity_mw": 34.0 }, "geometry": { "type": "Point", "coordinates": [ 15.9079, 51.1809 ] } },
{ "type": "Feature", "properties": { "name": "Farma Wiatrowa Margonin", "primary_fuel": "Wind", "capacity_mw": 120.0 }, "geometry": { "type": "Point", "coordinates": [ 17.1572, 52.9643 ] } },
{ "type": "Feature", "properties": { "name": "Gorzkowice", "primary_fuel": "Wind", "capacity_mw": 12.0 }, "geometry": { "type": "Point", "coordinates": [ 19.6404, 51.2195 ] } },
{ "type": "Feature", "properties": { "name": "Januszkowice", "primary_fuel": "Hydro", "capacity_mw": 2.0 }, "geometry": { "type": "Point", "coordinates": [ 18.1133, 50.3905 ] } },
{ "type": "Feature", "properties": { "name": "Jaworzno II", "primary_fuel": "Coal", "capacity_mw": 189.0 }, "geometry": { "type": "Point", "coordinates": [ 19.2273, 50.2132 ] } },
{ "type": "Feature", "properties": { "name": "Jaworzno III", "primary_fuel": "Coal", "capacity_mw": 1345.0 }, "geometry": { "type": "Point", "coordinates": [ 19.2046, 50.2064 ] } },
{ "type": "Feature", "properties": { "name": "Konin", "primary_fuel": "Coal", "capacity_mw": 233.0 }, "geometry": { "type": "Point", "coordinates": [ 18.2695, 52.2837 ] } },
{ "type": "Feature", "properties": { "name": "Kozienice", "primary_fuel": "Coal", "capacity_mw": 1075.0 }, "geometry": { "type": "Point", "coordinates": [ 21.5478, 51.5829 ] } },
{ "type": "Feature", "properties": { "name": "Kozienice", "primary_fuel": "Coal", "capacity_mw": 2673.0 }, "geometry": { "type": "Point", "coordinates": [ 21.4647, 51.6658 ] } },
{ "type": "Feature", "properties": { "name": "Kozienice II", "primary_fuel": "Coal", "capacity_mw": 1075.0 }, "geometry": { "type": "Point", "coordinates": [ 21.4614, 51.6668 ] } },
{ "type": "Feature", "properties": { "name": "Krapkowice", "primary_fuel": "Hydro", "capacity_mw": 2.0 }, "geometry": { "type": "Point", "coordinates": [ 17.9809, 50.4712 ] } },
{ "type": "Feature", "properties": { "name": "Krępna", "primary_fuel": "Hydro", "capacity_mw": 2.0 }, "geometry": { "type": "Point", "coordinates": [ 17.9577, 50.4483 ] } },
{ "type": "Feature", "properties": { "name": "Lubawa", "primary_fuel": "Wind", "capacity_mw": 10.0 }, "geometry": { "type": "Point", "coordinates": [ 19.7813, 53.5273 ] } },
{ "type": "Feature", "properties": { "name": "Miksztal", "primary_fuel": "Wind", "capacity_mw": 10.0 }, "geometry": { "type": "Point", "coordinates": [ 19.2568, 52.2972 ] } },
{ "type": "Feature", "properties": { "name": "Myczkowice", "primary_fuel": "Hydro", "capacity_mw": 8.0 }, "geometry": { "type": "Point", "coordinates": [ 22.4014, 49.432 ] } },
{ "type": "Feature", "properties": { "name": "Nidzica/Tatary", "primary_fuel": "Wind", "capacity_mw": 10.0 }, "geometry": { "type": "Point", "coordinates": [ 20.4741, 53.3211 ] } },
{ "type": "Feature", "properties": { "name": "Niedzica", "primary_fuel": "Hydro", "capacity_mw": 93.0 }, "geometry": { "type": "Point", "coordinates": [ 20.3232, 49.4183 ] } },
{ "type": "Feature", "properties": { "name": "Opole", "primary_fuel": "Coal", "capacity_mw": 1492.0 }, "geometry": { "type": "Point", "coordinates": [ 17.8845, 50.7514 ] } },
{ "type": "Feature", "properties": { "name": "Ostrołęka A", "primary_fuel": "Coal", "capacity_mw": 75.0 }, "geometry": { "type": "Point", "coordinates": [ 21.6053, 53.1019 ] } },
{ "type": "Feature", "properties": { "name": "Ostrołęka B", "primary_fuel": "Coal", "capacity_mw": 681.0 }, "geometry": { "type": "Point", "coordinates": [ 21.6118, 53.1039 ] } },
{ "type": "Feature", "properties": { "name": "Oława", "primary_fuel": "Hydro", "capacity_mw": 4.0 }, "geometry": { "type": "Point", "coordinates": [ 17.3401, 50.9374 ] } },
{ "type": "Feature", "properties": { "name": "PW Kamieńsk", "primary_fuel": "Wind", "capacity_mw": 31.0 }, "geometry": { "type": "Point", "coordinates": [ 19.427, 51.216 ] } },
{ "type": "Feature", "properties": { "name": "Pierzchły", "primary_fuel": "Hydro", "capacity_mw": 3.0 }, "geometry": { "type": "Point", "coordinates": [ 19.849, 54.3007 ] } },
{ "type": "Feature", "properties": { "name": "Porąbka", "primary_fuel": "Hydro", "capacity_mw": 13.0 }, "geometry": { "type": "Point", "coordinates": [ 19.2023, 49.8069 ] } },
{ "type": "Feature", "properties": { "name": "Porąbka-Żar", "primary_fuel": "Hydro", "capacity_mw": 540.0 }, "geometry": { "type": "Point", "coordinates": [ 19.2115, 49.7809 ] } },
{ "type": "Feature", "properties": { "name": "Poznań Karolin EC-II", "primary_fuel": "Coal", "capacity_mw": 276.0 }, "geometry": { "type": "Point", "coordinates": [ 16.9873, 52.4361 ] } },
{ "type": "Feature", "properties": { "name": "Połaniec", "primary_fuel": "Coal", "capacity_mw": 1623.0 }, "geometry": { "type": "Point", "coordinates": [ 21.3377, 50.4365 ] } },
{ "type": "Feature", "properties": { "name": "Połaniec Zielony Blok", "primary_fuel": "Biomass", "capacity_mw": 205.0 }, "geometry": { "type": "Point", "coordinates": [ 21.3404, 50.4374 ] } },
{ "type": "Feature", "properties": { "name": "Puławy", "primary_fuel": "Coal", "capacity_mw": 112.0 }, "geometry": { "type": "Point", "coordinates": [ 21.9744, 51.4574 ] } },
{ "type": "Feature", "properties": { "name": "Pątnów I", "primary_fuel": "Coal", "capacity_mw": 1244.0 }, "geometry": { "type": "Point", "coordinates": [ 18.2344, 52.3013 ] } },
{ "type": "Feature", "properties": { "name": "Pątnów II", "primary_fuel": "Coal", "capacity_mw": 464.0 }, "geometry": { "type": "Point", "coordinates": [ 18.2369, 52.3014 ] } },
{ "type": "Feature", "properties": { "name": "Rakowice", "primary_fuel": "Hydro", "capacity_mw": 2.0 }, "geometry": { "type": "Point", "coordinates": [ 15.5766, 51.1294 ] } },
{ "type": "Feature", "properties": { "name": "Rybnik", "primary_fuel": "Coal", "capacity_mw": 1775.0 }, "geometry": { "type": "Point", "coordinates": [ 18.5232, 50.1331 ] } },
{ "type": "Feature", "properties": { "name": "Siersza", "primary_fuel": "Coal", "capacity_mw": 546.0 }, "geometry": { "type": "Point", "coordinates": [ 19.4617, 50.2083 ] } },
{ "type": "Feature", "properties": { "name": "Smardzewice", "primary_fuel": "Hydro", "capacity_mw": 4.0 }, "geometry": { "type": "Point", "coordinates": [ 20.0061, 51.4739 ] } },
{ "type": "Feature", "properties": { "name": "Solina", "primary_fuel": "Hydro", "capacity_mw": 198.0 }, "geometry": { "type": "Point", "coordinates": [ 22.4541, 49.3959 ] } },
{ "type": "Feature", "properties": { "name": "Sromowice Wyżne", "primary_fuel": "Hydro", "capacity_mw": 2.0 }, "geometry": { "type": "Point", "coordinates": [ 20.3336, 49.4068 ] } },
{ "type": "Feature", "properties": { "name": "Stalowa Wola", "primary_fuel": "Coal", "capacity_mw": 350.0 }, "geometry": { "type": "Point", "coordinates": [ 22.0787, 50.5538 ] } },
{ "type": "Feature", "properties": { "name": "Straszyn", "primary_fuel": "Hydro", "capacity_mw": 4.0 }, "geometry": { "type": "Point", "coordinates": [ 18.5633, 54.2742 ] } },
{ "type": "Feature", "properties": { "name": "Tresna", "primary_fuel": "Hydro", "capacity_mw": 21.0 }, "geometry": { "type": "Point", "coordinates": [ 19.2063, 49.7479 ] } },
{ "type": "Feature", "properties": { "name": "Włocławek", "primary_fuel": "Hydro", "capacity_mw": 160.0 }, "geometry": { "type": "Point", "coordinates": [ 19.1338, 52.6555 ] } },
{ "type": "Feature", "properties": { "name": "ZPC Żory", "primary_fuel": "Coal", "capacity_mw": 5.0 }, "geometry": { "type": "Point", "coordinates": [ 18.6298, 50.0411 ] } },
{ "type": "Feature", "properties": { "name": "Łagisza", "primary_fuel": "Coal", "capacity_mw": 700.0 }, "geometry": { "type": "Point", "coordinates": [ 19.1412, 50.3499 ] } },
{ "type": "Feature", "properties": { "name": "Łapino", "primary_fuel": "Hydro", "capacity_mw": 7.0 }, "geometry": { "type": "Point", "coordinates": [ 18.4482, 54.2847 ] } },
{ "type": "Feature", "properties": { "name": "Łaziska", "primary_fuel": "Coal", "capacity_mw": 1155.0 }, "geometry": { "type": "Point", "coordinates": [ 18.8465, 50.1331 ] } },
{ "type": "Feature", "properties": { "name": "Doba", "primary_fuel": "Solar", "capacity_mw": 5.9 }, "geometry": { "type": "Point", "coordinates": [ 22.729, 47.749 ] } },
{ "type": "Feature", "properties": { "name": "Sebiș", "primary_fuel": "Solar", "capacity_mw": 15.0 }, "geometry": { "type": "Point", "coordinates": [ 22.108, 46.428 ] } },
{ "type": "Feature", "properties": { "name": "Solaris", "primary_fuel": "Solar", "capacity_mw": 56.0 }, "geometry": { "type": "Point", "coordinates": [ 23.054, 47.868 ] } },
{ "type": "Feature", "properties": { "name": "TPP Oradea", "primary_fuel": "Coal", "capacity_mw": 170.0 }, "geometry": { "type": "Point", "coordinates": [ 21.8928, 47.0842 ] } },
{ "type": "Feature", "properties": { "name": "Badín", "primary_fuel": "Solar", "capacity_mw": 6.0 }, "geometry": { "type": "Point", "coordinates": [ 19.056, 48.265 ] } },
{ "type": "Feature", "properties": { "name": "Bohunice Nuclear Power Plant Slovakia", "primary_fuel": "Nuclear", "capacity_mw": 880.0 }, "geometry": { "type": "Point", "coordinates": [ 17.6816, 48.496 ] } },
{ "type": "Feature", "properties": { "name": "Cierny Vah Pumped Storage Hydroelectric Power Plant Slovakia", "primary_fuel": "Hydro", "capacity_mw": 735.0 }, "geometry": { "type": "Point", "coordinates": [ 19.9122, 49.0088 ] } },
{ "type": "Feature", "properties": { "name": "Cunovo Hydroelectric Power Plant Slovakia", "primary_fuel": "Hydro", "capacity_mw": 24.0 }, "geometry": { "type": "Point", "coordinates": [ 17.2254, 48.0299 ] } },
{ "type": "Feature", "properties": { "name": "Dubnica nad Vahom Hydroelectric Power Plant Slovakia", "primary_fuel": "Hydro", "capacity_mw": 16.5 }, "geometry": { "type": "Point", "coordinates": [ 18.1454, 48.9638 ] } },
{ "type": "Feature", "properties": { "name": "Gabcikovo Hydroelectric Power Plant Slovakia", "primary_fuel": "Hydro", "capacity_mw": 720.0 }, "geometry": { "type": "Point", "coordinates": [ 17.5384, 47.88 ] } },
{ "type": "Feature", "properties": { "name": "Horna Streda Hydroelectric Power Plant Slovakia", "primary_fuel": "Hydro", "capacity_mw": 25.5 }, "geometry": { "type": "Point", "coordinates": [ 17.855, 48.6605 ] } },
{ "type": "Feature", "properties": { "name": "Hricov Hydroelectric Power Plant Slovakia", "primary_fuel": "Hydro", "capacity_mw": 31.5 }, "geometry": { "type": "Point", "coordinates": [ 18.6815, 49.2594 ] } },
{ "type": "Feature", "properties": { "name": "Ilava Hydroelectric Power Plant Slovakia", "primary_fuel": "Hydro", "capacity_mw": 15.0 }, "geometry": { "type": "Point", "coordinates": [ 18.235, 49.0057 ] } },
{ "type": "Feature", "properties": { "name": "Kostolna Hydroelectric Power Plant Slovakia", "primary_fuel": "Hydro", "capacity_mw": 25.5 }, "geometry": { "type": "Point", "coordinates": [ 17.9689, 48.861 ] } },
{ "type": "Feature", "properties": { "name": "Kralova Hydroelectric Power Plant Slovakia", "primary_fuel": "Hydro", "capacity_mw": 45.06 }, "geometry": { "type": "Point", "coordinates": [ 19.8296, 48.1912 ] } },
{ "type": "Feature", "properties": { "name": "Kreplany Hydroelectric Power Plant Slovakia", "primary_fuel": "Hydro", "capacity_mw": 24.75 }, "geometry": { "type": "Point", "coordinates": [ 19.0941, 49.1281 ] } },
{ "type": "Feature", "properties": { "name": "L'adovo", "primary_fuel": "Solar", "capacity_mw": 18.0 }, "geometry": { "type": "Point", "coordinates": [ 19.62, 48.347 ] } },
{ "type": "Feature", "properties": { "name": "Levice CCGT CHP Power Plant Slovakia", "primary_fuel": "Gas", "capacity_mw": 80.0 }, "geometry": { "type": "Point", "coordinates": [ 18.597, 48.2022 ] } },
{ "type": "Feature", "properties": { "name": "Lipovec Hydroelectric Power Plant Slovakia", "primary_fuel": "Hydro", "capacity_mw": 38.4 }, "geometry": { "type": "Point", "coordinates": [ 18.9114, 49.132 ] } },
{ "type": "Feature", "properties": { "name": "Liptovska Mara Pumped Storage Hydroelectric Power Plant Slovakia", "primary_fuel": "Hydro", "capacity_mw": 198.0 }, "geometry": { "type": "Point", "coordinates": [ 19.4889, 49.0986 ] } },
{ "type": "Feature", "properties": { "name": "Madunice Hydroelectric Power Plant Slovakia", "primary_fuel": "Hydro", "capacity_mw": 43.2 }, "geometry": { "type": "Point", "coordinates": [ 17.7938, 48.4884 ] } },
{ "type": "Feature", "properties": { "name": "Malzenice CCGT Power Plant Slovakia", "primary_fuel": "Gas", "capacity_mw": 430.0 }, "geometry": { "type": "Point", "coordinates": [ 17.6978, 48.4296 ] } },
{ "type": "Feature", "properties": { "name": "Miskova Hydroelectric Power Plant Slovakia", "primary_fuel": "Hydro", "capacity_mw": 93.6 }, "geometry": { "type": "Point", "coordinates": [ 18.5083, 49.1928 ] } },
{ "type": "Feature", "properties": { "name": "Mochovce Nuclear Power Plant Slovakia", "primary_fuel": "Nuclear", "capacity_mw": 880.0 }, "geometry": { "type": "Point", "coordinates": [ 18.459, 48.2621 ] } },
{ "type": "Feature", "properties": { "name": "Nosice Hydroelectric Power Plant Slovakia", "primary_fuel": "Hydro", "capacity_mw": 67.5 }, "geometry": { "type": "Point", "coordinates": [ 18.3642, 49.1275 ] } },
{ "type": "Feature", "properties": { "name": "Novaky (ENO) Thermal CHP Power Plant Slovakia", "primary_fuel": "Coal", "capacity_mw": 518.0 }, "geometry": { "type": "Point", "coordinates": [ 18.5335, 48.6988 ] } },
{ "type": "Feature", "properties": { "name": "Nove Mesto n.V. Hydroelectric Power Plant Slovakia", "primary_fuel": "Hydro", "capacity_mw": 25.5 }, "geometry": { "type": "Point", "coordinates": [ 17.8516, 48.7725 ] } },
{ "type": "Feature", "properties": { "name": "Orava Hydroelectric Power Plant Slovakia", "primary_fuel": "Hydro", "capacity_mw": 21.75 }, "geometry": { "type": "Point", "coordinates": [ 19.557, 49.3756 ] } },
{ "type": "Feature", "properties": { "name": "PPC Bratislava CCGT CHP Power Plant Slovakia", "primary_fuel": "Gas", "capacity_mw": 218.0 }, "geometry": { "type": "Point", "coordinates": [ 17.1548, 48.1775 ] } },
{ "type": "Feature", "properties": { "name": "Povazska Bystrica Hydroelectric Power Plant Slovakia", "primary_fuel": "Hydro", "capacity_mw": 55.2 }, "geometry": { "type": "Point", "coordinates": [ 18.4538, 49.1331 ] } },
{ "type": "Feature", "properties": { "name": "Ruzin Pumped Storage Hydroelectric Power plant Slovakia", "primary_fuel": "Hydro", "capacity_mw": 60.0 }, "geometry": { "type": "Point", "coordinates": [ 21.0911, 48.8616 ] } },
{ "type": "Feature", "properties": { "name": "Sucany Hydroelectric Power Plant Slovakia", "primary_fuel": "Hydro", "capacity_mw": 38.4 }, "geometry": { "type": "Point", "coordinates": [ 18.9916, 49.1072 ] } },
{ "type": "Feature", "properties": { "name": "Trencin Hydroelectric Power Plant Slovakia", "primary_fuel": "Hydro", "capacity_mw": 16.5 }, "geometry": { "type": "Point", "coordinates": [ 18.056, 48.9022 ] } },
{ "type": "Feature", "properties": { "name": "Vojany (EVO) Thermal Power Plant Slovakia", "primary_fuel": "Coal", "capacity_mw": 880.0 }, "geometry": { "type": "Point", "coordinates": [ 21.9782, 48.5536 ] } },
{ "type": "Feature", "properties": { "name": "Donaustadt", "primary_fuel": "Gas", "capacity_mw": 395.0 }, "geometry": { "type": "Point", "coordinates": [ 16.4633, 48.2 ] } },
{ "type": "Feature", "properties": { "name": "Freudenau Danube", "primary_fuel": "Hydro", "capacity_mw": 172.0 }, "geometry": { "type": "Point", "coordinates": [ 16.4811, 48.1764 ] } },
{ "type": "Feature", "properties": { "name": "Gaming", "primary_fuel": "Hydro", "capacity_mw": 14.0 }, "geometry": { "type": "Point", "coordinates": [ 16.4813, 48.1766 ] } },
{ "type": "Feature", "properties": { "name": "Greifenstein", "primary_fuel": "Hydro", "capacity_mw": 293.0 }, "geometry": { "type": "Point", "coordinates": [ 16.2424, 48.3553 ] } },
{ "type": "Feature", "properties": { "name": "Simmering", "primary_fuel": "Gas", "capacity_mw": 1272.0 }, "geometry": { "type": "Point", "coordinates": [ 16.4334, 48.1815 ] } },
{ "type": "Feature", "properties": { "name": "Vienna-Freudenau", "primary_fuel": "Hydro", "capacity_mw": 172.0 }, "geometry": { "type": "Point", "coordinates": [ 16.4814, 48.1766 ] } },
{ "type": "Feature", "properties": { "name": "Wind Park Bruck an der Leitha", "primary_fuel": "Wind", "capacity_mw": 9.0 }, "geometry": { "type": "Point", "coordinates": [ 16.7264, 48.0338 ] } },
{ "type": "Feature", "properties": { "name": "Wind Park Hollern II", "primary_fuel": "Wind", "capacity_mw": 37.0 }, "geometry": { "type": "Point", "coordinates": [ 16.844, 48.09 ] } },
{ "type": "Feature", "properties": { "name": "Wind Park Petronell-Carnuntum II", "primary_fuel": "Wind", "capacity_mw": 21.0 }, "geometry": { "type": "Point", "coordinates": [ 16.844, 48.09 ] } },
{ "type": "Feature", "properties": { "name": "Windpark Bruck-Göttlesbrunn", "primary_fuel": "Wind", "capacity_mw": 21.0 }, "geometry": { "type": "Point", "coordinates": [ 16.89, 48.095 ] } },
{ "type": "Feature", "properties": { "name": "Alpiq Csepel Erőmű", "primary_fuel": "Gas", "capacity_mw": 401.0 }, "geometry": { "type": "Point", "coordinates": [ 19.0525, 47.428 ] } },
{ "type": "Feature", "properties": { "name": "Bakony power station", "primary_fuel": "Coal", "capacity_mw": 60.0 }, "geometry": { "type": "Point", "coordinates": [ 17.5584, 47.0956 ] } },
{ "type": "Feature", "properties": { "name": "Bukkabrany ", "primary_fuel": "Solar", "capacity_mw": 20.0 }, "geometry": { "type": "Point", "coordinates": [ 20.707, 47.894 ] } },
{ "type": "Feature", "properties": { "name": "Debreceni Kombináltciklusú Erőmű", "primary_fuel": "Gas", "capacity_mw": 95.0 }, "geometry": { "type": "Point", "coordinates": [ 21.6329, 47.5185 ] } },
{ "type": "Feature", "properties": { "name": "Dunai", "primary_fuel": "Solar", "capacity_mw": 21.0 }, "geometry": { "type": "Point", "coordinates": [ 18.906, 47.333 ] } },
{ "type": "Feature", "properties": { "name": "Dunamenti Erőmű", "primary_fuel": "Gas", "capacity_mw": 840.7 }, "geometry": { "type": "Point", "coordinates": [ 18.9169, 47.3283 ] } },
{ "type": "Feature", "properties": { "name": "GREENERGY szabályozási központ", "primary_fuel": "Gas", "capacity_mw": 45.8 }, "geometry": { "type": "Point", "coordinates": [ 18.2646, 46.0641 ] } },
{ "type": "Feature", "properties": { "name": "Gönyűi Erőmű", "primary_fuel": "Gas", "capacity_mw": 426.6 }, "geometry": { "type": "Point", "coordinates": [ 17.8033, 47.7384 ] } },
{ "type": "Feature", "properties": { "name": "Kelenföldi Erőmű", "primary_fuel": "Gas", "capacity_mw": 173.0 }, "geometry": { "type": "Point", "coordinates": [ 19.0563, 47.4624 ] } },
{ "type": "Feature", "properties": { "name": "Kispesti Erőmű", "primary_fuel": "Gas", "capacity_mw": 109.2 }, "geometry": { "type": "Point", "coordinates": [ 19.1673, 47.4568 ] } },
{ "type": "Feature", "properties": { "name": "Lőrinci Gázturbinás Erőmű", "primary_fuel": "Oil", "capacity_mw": 170.0 }, "geometry": { "type": "Point", "coordinates": [ 19.6778, 47.7164 ] } },
{ "type": "Feature", "properties": { "name": "Matra power station", "primary_fuel": "Coal", "capacity_mw": 884.0 }, "geometry": { "type": "Point", "coordinates": [ 20.066, 47.7886 ] } },
{ "type": "Feature", "properties": { "name": "Oroszlány power station", "primary_fuel": "Coal", "capacity_mw": 250.0 }, "geometry": { "type": "Point", "coordinates": [ 18.2701, 47.5017 ] } },
{ "type": "Feature", "properties": { "name": "Paks", "primary_fuel": "Solar", "capacity_mw": 20.6 }, "geometry": { "type": "Point", "coordinates": [ 18.85, 46.59 ] } },
{ "type": "Feature", "properties": { "name": "Paksi Atomerőmű", "primary_fuel": "Nuclear", "capacity_mw": 1886.8 }, "geometry": { "type": "Point", "coordinates": [ 18.8536, 46.5739 ] } },
{ "type": "Feature", "properties": { "name": "Pécs", "primary_fuel": "Solar", "capacity_mw": 7.0 }, "geometry": { "type": "Point", "coordinates": [ 18.257, 46.06 ] } },
{ "type": "Feature", "properties": { "name": "Tiszai Erőmű", "primary_fuel": "Gas", "capacity_mw": 864.0 }, "geometry": { "type": "Point", "coordinates": [ 21.0784, 47.9178 ] } },
{ "type": "Feature", "properties": { "name": "Visonta", "primary_fuel": "Solar", "capacity_mw": 16.0 }, "geometry": { "type": "Point", "coordinates": [ 20.059, 47.802 ] } },
{ "type": "Feature", "properties": { "name": "Dobrotvir power station", "primary_fuel": "Coal", "capacity_mw": 500.0 }, "geometry": { "type": "Point", "coordinates": [ 24.375, 50.2133 ] } },
{ "type": "Feature", "properties": { "name": "Kalush power station", "primary_fuel": "Coal", "capacity_mw": 240.0 }, "geometry": { "type": "Point", "coordinates": [ 24.3185, 49.0705 ] } },
{ "type": "Feature", "properties": { "name": "Sambyrska II", "primary_fuel": "Solar", "capacity_mw": 7.0 }, "geometry": { "type": "Point", "coordinates": [ 23.23, 49.507 ] } }
]
}
